{
"type": "FeatureCollection",
"name": "olivos",
"crs": { "type": "name", "properties": { "name": "urn:ogc:def:crs:OGC:1.3:CRS84" } },
"xy_coordinate_resolution": 1e-07,
"features": [
{ "type": "Feature", "properties": { "id": 59, "altura_m": 3.695, "diam_copa_m": 4.883, "area_copa_m2": 18.726, "volumen_copa_m3": 28.7862, "prof_copa_m": 3.55, "esbeltez": 0.757, "dens_pts_m2": 1783.75, "num_puntos": 33402 }, "geometry": { "type": "Point", "coordinates": [ -3.8372259, 37.8145319 ] } },
{ "type": "Feature", "properties": { "id": 49, "altura_m": 3.92, "diam_copa_m": 4.351, "area_copa_m2": 14.868, "volumen_copa_m3": 18.2856, "prof_copa_m": 3.61, "esbeltez": 0.901, "dens_pts_m2": 1627.54, "num_puntos": 24199 }, "geometry": { "type": "Point", "coordinates": [ -3.8372498, 37.8146144 ] } },
{ "type": "Feature", "properties": { "id": 70, "altura_m": 3.243, "diam_copa_m": 4.874, "area_copa_m2": 18.659, "volumen_copa_m3": 26.865, "prof_copa_m": 3.25, "esbeltez": 0.665, "dens_pts_m2": 1936.31, "num_puntos": 36129 }, "geometry": { "type": "Point", "coordinates": [ -3.8371987, 37.8144551 ] } },
{ "type": "Feature", "properties": { "id": 65, "altura_m": 3.41, "diam_copa_m": 4.055, "area_copa_m2": 12.917, "volumen_copa_m3": 19.5137, "prof_copa_m": 3.2, "esbeltez": 0.841, "dens_pts_m2": 1675.13, "num_puntos": 21638 }, "geometry": { "type": "Point", "coordinates": [ -3.8370817, 37.8144859 ] } },
{ "type": "Feature", "properties": { "id": 60, "altura_m": 3.65, "diam_copa_m": 3.992, "area_copa_m2": 12.515, "volumen_copa_m3": 24.6075, "prof_copa_m": 3.42, "esbeltez": 0.914, "dens_pts_m2": 2289.63, "num_puntos": 28655 }, "geometry": { "type": "Point", "coordinates": [ -3.8371005, 37.8145514 ] } },
{ "type": "Feature", "properties": { "id": 78, "altura_m": 3.011, "diam_copa_m": 8.016, "area_copa_m2": 50.47, "volumen_copa_m3": 78.5343, "prof_copa_m": 3.71, "esbeltez": 0.376, "dens_pts_m2": 2049.2, "num_puntos": 103423 }, "geometry": { "type": "Point", "coordinates": [ -3.8371424, 37.8143467 ] } },
{ "type": "Feature", "properties": { "id": 54, "altura_m": 4.091, "diam_copa_m": 4.146, "area_copa_m2": 13.499, "volumen_copa_m3": 21.9294, "prof_copa_m": 3.85, "esbeltez": 0.987, "dens_pts_m2": 1866.56, "num_puntos": 25197 }, "geometry": { "type": "Point", "coordinates": [ -3.8370092, 37.8145906 ] } },
{ "type": "Feature", "properties": { "id": 75, "altura_m": 3.067, "diam_copa_m": 5.289, "area_copa_m2": 21.971, "volumen_copa_m3": 33.7144, "prof_copa_m": 3.31, "esbeltez": 0.58, "dens_pts_m2": 1724.96, "num_puntos": 37900 }, "geometry": { "type": "Point", "coordinates": [ -3.8370434, 37.8144035 ] } },
{ "type": "Feature", "properties": { "id": 79, "altura_m": 3.371, "diam_copa_m": 4.832, "area_copa_m2": 18.334, "volumen_copa_m3": 30.6931, "prof_copa_m": 3.75, "esbeltez": 0.698, "dens_pts_m2": 2116.04, "num_puntos": 38796 }, "geometry": { "type": "Point", "coordinates": [ -3.8370263, 37.8143555 ] } },
{ "type": "Feature", "properties": { "id": 80, "altura_m": 3.111, "diam_copa_m": 4.095, "area_copa_m2": 13.172, "volumen_copa_m3": 16.8862, "prof_copa_m": 3.35, "esbeltez": 0.76, "dens_pts_m2": 1634.9, "num_puntos": 21535 }, "geometry": { "type": "Point", "coordinates": [ -3.8369175, 37.8143695 ] } },
{ "type": "Feature", "properties": { "id": 81, "altura_m": 3.177, "diam_copa_m": 4.848, "area_copa_m2": 18.459, "volumen_copa_m3": 25.3625, "prof_copa_m": 4.2, "esbeltez": 0.655, "dens_pts_m2": 1788.75, "num_puntos": 33019 }, "geometry": { "type": "Point", "coordinates": [ -3.8368975, 37.8143337 ] } },
{ "type": "Feature", "properties": { "id": 72, "altura_m": 3.583, "diam_copa_m": 6.035, "area_copa_m2": 28.602, "volumen_copa_m3": 30.8369, "prof_copa_m": 3.58, "esbeltez": 0.594, "dens_pts_m2": 1444.45, "num_puntos": 41314 }, "geometry": { "type": "Point", "coordinates": [ -3.8368411, 37.8144475 ] } },
{ "type": "Feature", "properties": { "id": 71, "altura_m": 2.979, "diam_copa_m": 4.323, "area_copa_m2": 14.675, "volumen_copa_m3": 19.4369, "prof_copa_m": 3.05, "esbeltez": 0.689, "dens_pts_m2": 1531.37, "num_puntos": 22473 }, "geometry": { "type": "Point", "coordinates": [ -3.8369377, 37.8144301 ] } },
{ "type": "Feature", "properties": { "id": 66, "altura_m": 3.543, "diam_copa_m": 4.745, "area_copa_m2": 17.686, "volumen_copa_m3": 29.5388, "prof_copa_m": 3.26, "esbeltez": 0.747, "dens_pts_m2": 2010.21, "num_puntos": 35552 }, "geometry": { "type": "Point", "coordinates": [ -3.8369614, 37.8145123 ] } },
{ "type": "Feature", "properties": { "id": 51, "altura_m": 3.985, "diam_copa_m": 5.368, "area_copa_m2": 22.63, "volumen_copa_m3": 35.565, "prof_copa_m": 3.71, "esbeltez": 0.742, "dens_pts_m2": 1777.1, "num_puntos": 40215 }, "geometry": { "type": "Point", "coordinates": [ -3.8368977, 37.8146164 ] } },
{ "type": "Feature", "properties": { "id": 61, "altura_m": 3.622, "diam_copa_m": 4.636, "area_copa_m2": 16.883, "volumen_copa_m3": 21.7326, "prof_copa_m": 3.38, "esbeltez": 0.781, "dens_pts_m2": 1587.78, "num_puntos": 26807 }, "geometry": { "type": "Point", "coordinates": [ -3.8368857, 37.8145385 ] } },
{ "type": "Feature", "properties": { "id": 67, "altura_m": 3.511, "diam_copa_m": 4.262, "area_copa_m2": 14.266, "volumen_copa_m3": 18.6206, "prof_copa_m": 3.35, "esbeltez": 0.824, "dens_pts_m2": 1416.07, "num_puntos": 20201 }, "geometry": { "type": "Point", "coordinates": [ -3.836725, 37.8144774 ] } },
{ "type": "Feature", "properties": { "id": 52, "altura_m": 4.014, "diam_copa_m": 4.888, "area_copa_m2": 18.763, "volumen_copa_m3": 31.0131, "prof_copa_m": 3.69, "esbeltez": 0.821, "dens_pts_m2": 2016.94, "num_puntos": 37843 }, "geometry": { "type": "Point", "coordinates": [ -3.8368011, 37.8146308 ] } },
{ "type": "Feature", "properties": { "id": 62, "altura_m": 3.583, "diam_copa_m": 4.147, "area_copa_m2": 13.506, "volumen_copa_m3": 18.4519, "prof_copa_m": 3.2, "esbeltez": 0.864, "dens_pts_m2": 1749.31, "num_puntos": 23626 }, "geometry": { "type": "Point", "coordinates": [ -3.8367751, 37.8145594 ] } },
{ "type": "Feature", "properties": { "id": 55, "altura_m": 0.423, "diam_copa_m": 1.022, "area_copa_m2": 0.82, "volumen_copa_m3": 0.0319, "prof_copa_m": 0.08, "esbeltez": 0.414, "dens_pts_m2": 925.36, "num_puntos": 759 }, "geometry": { "type": "Point", "coordinates": [ -3.836721, 37.8145701 ] } },
{ "type": "Feature", "properties": { "id": 56, "altura_m": 3.37, "diam_copa_m": 4.482, "area_copa_m2": 15.78, "volumen_copa_m3": 18.6856, "prof_copa_m": 3.02, "esbeltez": 0.752, "dens_pts_m2": 1544.58, "num_puntos": 24373 }, "geometry": { "type": "Point", "coordinates": [ -3.8366624, 37.8145761 ] } },
{ "type": "Feature", "properties": { "id": 68, "altura_m": 3.828, "diam_copa_m": 6.107, "area_copa_m2": 29.295, "volumen_copa_m3": 46.41, "prof_copa_m": 3.68, "esbeltez": 0.627, "dens_pts_m2": 1826.42, "num_puntos": 53505 }, "geometry": { "type": "Point", "coordinates": [ -3.8366276, 37.8145 ] } },
{ "type": "Feature", "properties": { "id": 77, "altura_m": 3.925, "diam_copa_m": 4.234, "area_copa_m2": 14.083, "volumen_copa_m3": 22.7156, "prof_copa_m": 3.79, "esbeltez": 0.927, "dens_pts_m2": 2066.22, "num_puntos": 29098 }, "geometry": { "type": "Point", "coordinates": [ -3.8367075, 37.8144027 ] } },
{ "type": "Feature", "properties": { "id": 82, "altura_m": 2.522, "diam_copa_m": 4.7, "area_copa_m2": 17.349, "volumen_copa_m3": 20.2463, "prof_copa_m": 3.44, "esbeltez": 0.537, "dens_pts_m2": 1818.12, "num_puntos": 31542 }, "geometry": { "type": "Point", "coordinates": [ -3.8367822, 37.8143519 ] } },
{ "type": "Feature", "properties": { "id": 76, "altura_m": 3.631, "diam_copa_m": 4.26, "area_copa_m2": 14.252, "volumen_copa_m3": 23.6056, "prof_copa_m": 3.59, "esbeltez": 0.852, "dens_pts_m2": 2152.86, "num_puntos": 30683 }, "geometry": { "type": "Point", "coordinates": [ -3.8368026, 37.8143982 ] } },
{ "type": "Feature", "properties": { "id": 32, "altura_m": 3.608, "diam_copa_m": 5.625, "area_copa_m2": 24.854, "volumen_copa_m3": 40.8039, "prof_copa_m": 3.65, "esbeltez": 0.641, "dens_pts_m2": 1979.17, "num_puntos": 49190 }, "geometry": { "type": "Point", "coordinates": [ -3.8367597, 37.8148318 ] } },
{ "type": "Feature", "properties": { "id": 22, "altura_m": 3.616, "diam_copa_m": 5.91, "area_copa_m2": 27.431, "volumen_copa_m3": 44.7114, "prof_copa_m": 3.7, "esbeltez": 0.612, "dens_pts_m2": 1808.38, "num_puntos": 49605 }, "geometry": { "type": "Point", "coordinates": [ -3.8367949, 37.8149106 ] } },
{ "type": "Feature", "properties": { "id": 17, "altura_m": 3.533, "diam_copa_m": 5.024, "area_copa_m2": 19.82, "volumen_copa_m3": 28.7868, "prof_copa_m": 3.75, "esbeltez": 0.703, "dens_pts_m2": 1917.03, "num_puntos": 37996 }, "geometry": { "type": "Point", "coordinates": [ -3.836692, 37.8149335 ] } },
{ "type": "Feature", "properties": { "id": 27, "altura_m": 3.632, "diam_copa_m": 5.406, "area_copa_m2": 22.956, "volumen_copa_m3": 31.2881, "prof_copa_m": 3.71, "esbeltez": 0.672, "dens_pts_m2": 2158.24, "num_puntos": 49545 }, "geometry": { "type": "Point", "coordinates": [ -3.8366478, 37.8148436 ] } },
{ "type": "Feature", "properties": { "id": 37, "altura_m": 3.451, "diam_copa_m": 4.952, "area_copa_m2": 19.257, "volumen_copa_m3": 28.6063, "prof_copa_m": 3.46, "esbeltez": 0.697, "dens_pts_m2": 1910.75, "num_puntos": 36795 }, "geometry": { "type": "Point", "coordinates": [ -3.8366227, 37.8147658 ] } },
{ "type": "Feature", "properties": { "id": 36, "altura_m": 4.083, "diam_copa_m": 5.617, "area_copa_m2": 24.778, "volumen_copa_m3": 41.0231, "prof_copa_m": 4.02, "esbeltez": 0.727, "dens_pts_m2": 1703.47, "num_puntos": 42209 }, "geometry": { "type": "Point", "coordinates": [ -3.8367197, 37.8147443 ] } },
{ "type": "Feature", "properties": { "id": 46, "altura_m": 3.854, "diam_copa_m": 5.306, "area_copa_m2": 22.114, "volumen_copa_m3": 30.6812, "prof_copa_m": 3.69, "esbeltez": 0.726, "dens_pts_m2": 1752.05, "num_puntos": 38745 }, "geometry": { "type": "Point", "coordinates": [ -3.8366869, 37.8146659 ] } },
{ "type": "Feature", "properties": { "id": 42, "altura_m": 4.004, "diam_copa_m": 5.637, "area_copa_m2": 24.959, "volumen_copa_m3": 37.6031, "prof_copa_m": 3.86, "esbeltez": 0.71, "dens_pts_m2": 1684.15, "num_puntos": 42034 }, "geometry": { "type": "Point", "coordinates": [ -3.8368424, 37.8147281 ] } },
{ "type": "Feature", "properties": { "id": 41, "altura_m": 4.021, "diam_copa_m": 6.474, "area_copa_m2": 32.922, "volumen_copa_m3": 47.7756, "prof_copa_m": 3.81, "esbeltez": 0.621, "dens_pts_m2": 1715.81, "num_puntos": 56488 }, "geometry": { "type": "Point", "coordinates": [ -3.8369341, 37.8146967 ] } },
{ "type": "Feature", "properties": { "id": 45, "altura_m": 3.7, "diam_copa_m": 5.366, "area_copa_m2": 22.617, "volumen_copa_m3": 32.9144, "prof_copa_m": 3.34, "esbeltez": 0.69, "dens_pts_m2": 1462.31, "num_puntos": 33073 }, "geometry": { "type": "Point", "coordinates": [ -3.8370463, 37.8146756 ] } },
{ "type": "Feature", "properties": { "id": 35, "altura_m": 3.885, "diam_copa_m": 6.07, "area_copa_m2": 28.939, "volumen_copa_m3": 43.9693, "prof_copa_m": 3.77, "esbeltez": 0.64, "dens_pts_m2": 1781.34, "num_puntos": 51551 }, "geometry": { "type": "Point", "coordinates": [ -3.8369746, 37.8147781 ] } },
{ "type": "Feature", "properties": { "id": 26, "altura_m": 3.657, "diam_copa_m": 4.815, "area_copa_m2": 18.211, "volumen_copa_m3": 29.0187, "prof_copa_m": 3.56, "esbeltez": 0.759, "dens_pts_m2": 2052.36, "num_puntos": 37375 }, "geometry": { "type": "Point", "coordinates": [ -3.8369963, 37.8148622 ] } },
{ "type": "Feature", "properties": { "id": 31, "altura_m": 3.519, "diam_copa_m": 4.772, "area_copa_m2": 17.887, "volumen_copa_m3": 30.1569, "prof_copa_m": 3.48, "esbeltez": 0.737, "dens_pts_m2": 1864.12, "num_puntos": 33344 }, "geometry": { "type": "Point", "coordinates": [ -3.8368699, 37.8148098 ] } },
{ "type": "Feature", "properties": { "id": 21, "altura_m": 3.87, "diam_copa_m": 4.894, "area_copa_m2": 18.81, "volumen_copa_m3": 32.5306, "prof_copa_m": 3.89, "esbeltez": 0.791, "dens_pts_m2": 2070.46, "num_puntos": 38945 }, "geometry": { "type": "Point", "coordinates": [ -3.8368992, 37.8148873 ] } },
{ "type": "Feature", "properties": { "id": 16, "altura_m": 3.554, "diam_copa_m": 4.861, "area_copa_m2": 18.56, "volumen_copa_m3": 32.5831, "prof_copa_m": 3.54, "esbeltez": 0.731, "dens_pts_m2": 2076.57, "num_puntos": 38542 }, "geometry": { "type": "Point", "coordinates": [ -3.8370334, 37.8149348 ] } },
{ "type": "Feature", "properties": { "id": 20, "altura_m": 3.67, "diam_copa_m": 4.706, "area_copa_m2": 17.392, "volumen_copa_m3": 29.1051, "prof_copa_m": 3.58, "esbeltez": 0.78, "dens_pts_m2": 2133.98, "num_puntos": 37114 }, "geometry": { "type": "Point", "coordinates": [ -3.8371491, 37.8149156 ] } },
{ "type": "Feature", "properties": { "id": 25, "altura_m": 3.902, "diam_copa_m": 4.775, "area_copa_m2": 17.91, "volumen_copa_m3": 27.5725, "prof_copa_m": 3.71, "esbeltez": 0.817, "dens_pts_m2": 1978.18, "num_puntos": 35430 }, "geometry": { "type": "Point", "coordinates": [ -3.8371107, 37.8148439 ] } },
{ "type": "Feature", "properties": { "id": 34, "altura_m": 3.748, "diam_copa_m": 5.236, "area_copa_m2": 21.532, "volumen_copa_m3": 37.8506, "prof_copa_m": 3.49, "esbeltez": 0.716, "dens_pts_m2": 1858.44, "num_puntos": 40015 }, "geometry": { "type": "Point", "coordinates": [ -3.8370907, 37.8147475 ] } },
{ "type": "Feature", "properties": { "id": 30, "altura_m": 0.767, "diam_copa_m": 9.297, "area_copa_m2": 67.884, "volumen_copa_m3": 2.5225, "prof_copa_m": 0.63, "esbeltez": 0.083, "dens_pts_m2": 779.69, "num_puntos": 52929 }, "geometry": { "type": "Point", "coordinates": [ -3.8372281, 37.8148049 ] } },
{ "type": "Feature", "properties": { "id": 19, "altura_m": 3.738, "diam_copa_m": 5.436, "area_copa_m2": 23.205, "volumen_copa_m3": 32.625, "prof_copa_m": 3.66, "esbeltez": 0.688, "dens_pts_m2": 1631.47, "num_puntos": 37859 }, "geometry": { "type": "Point", "coordinates": [ -3.8372401, 37.8148905 ] } },
{ "type": "Feature", "properties": { "id": 50, "altura_m": 3.808, "diam_copa_m": 5.849, "area_copa_m2": 26.865, "volumen_copa_m3": 33.0306, "prof_copa_m": 3.42, "esbeltez": 0.651, "dens_pts_m2": 1442.91, "num_puntos": 38764 }, "geometry": { "type": "Point", "coordinates": [ -3.8371522, 37.8146424 ] } },
{ "type": "Feature", "properties": { "id": 44, "altura_m": 0.4, "diam_copa_m": 1.5, "area_copa_m2": 1.768, "volumen_copa_m3": 0.0494, "prof_copa_m": 0.06, "esbeltez": 0.267, "dens_pts_m2": 768.78, "num_puntos": 1359 }, "geometry": { "type": "Point", "coordinates": [ -3.837119, 37.8146636 ] } },
{ "type": "Feature", "properties": { "id": 40, "altura_m": 3.846, "diam_copa_m": 5.058, "area_copa_m2": 20.096, "volumen_copa_m3": 30.975, "prof_copa_m": 3.57, "esbeltez": 0.76, "dens_pts_m2": 1909.17, "num_puntos": 38367 }, "geometry": { "type": "Point", "coordinates": [ -3.8371745, 37.8147294 ] } },
{ "type": "Feature", "properties": { "id": 39, "altura_m": 3.706, "diam_copa_m": 5.361, "area_copa_m2": 22.574, "volumen_copa_m3": 29.8062, "prof_copa_m": 3.56, "esbeltez": 0.691, "dens_pts_m2": 1784.57, "num_puntos": 40285 }, "geometry": { "type": "Point", "coordinates": [ -3.8372831, 37.8147013 ] } },
{ "type": "Feature", "properties": { "id": 29, "altura_m": 3.674, "diam_copa_m": 4.959, "area_copa_m2": 19.318, "volumen_copa_m3": 30.7689, "prof_copa_m": 3.59, "esbeltez": 0.741, "dens_pts_m2": 1932.88, "num_puntos": 37339 }, "geometry": { "type": "Point", "coordinates": [ -3.8373233, 37.8147865 ] } },
{ "type": "Feature", "properties": { "id": 24, "altura_m": 3.501, "diam_copa_m": 6.533, "area_copa_m2": 33.523, "volumen_copa_m3": 36.5956, "prof_copa_m": 3.5, "esbeltez": 0.536, "dens_pts_m2": 1589.94, "num_puntos": 53299 }, "geometry": { "type": "Point", "coordinates": [ -3.8373456, 37.8148739 ] } },
{ "type": "Feature", "properties": { "id": 15, "altura_m": 3.674, "diam_copa_m": 6.836, "area_copa_m2": 36.707, "volumen_copa_m3": 53.4988, "prof_copa_m": 3.6, "esbeltez": 0.537, "dens_pts_m2": 1650.57, "num_puntos": 60587 }, "geometry": { "type": "Point", "coordinates": [ -3.8373941, 37.8149491 ] } },
{ "type": "Feature", "properties": { "id": 10, "altura_m": 4.218, "diam_copa_m": 5.14, "area_copa_m2": 20.747, "volumen_copa_m3": 35.6713, "prof_copa_m": 4.15, "esbeltez": 0.821, "dens_pts_m2": 2021.86, "num_puntos": 41947 }, "geometry": { "type": "Point", "coordinates": [ -3.8372785, 37.8149814 ] } },
{ "type": "Feature", "properties": { "id": 6, "altura_m": 3.518, "diam_copa_m": 4.808, "area_copa_m2": 18.157, "volumen_copa_m3": 26.1356, "prof_copa_m": 3.51, "esbeltez": 0.732, "dens_pts_m2": 1757.71, "num_puntos": 31914 }, "geometry": { "type": "Point", "coordinates": [ -3.8370638, 37.8150172 ] } },
{ "type": "Feature", "properties": { "id": 11, "altura_m": 3.608, "diam_copa_m": 5.291, "area_copa_m2": 21.987, "volumen_copa_m3": 39.3445, "prof_copa_m": 3.62, "esbeltez": 0.682, "dens_pts_m2": 1962.97, "num_puntos": 43159 }, "geometry": { "type": "Point", "coordinates": [ -3.8371758, 37.8149956 ] } },
{ "type": "Feature", "properties": { "id": 3, "altura_m": 3.311, "diam_copa_m": 5.659, "area_copa_m2": 25.152, "volumen_copa_m3": 36.1613, "prof_copa_m": 3.49, "esbeltez": 0.585, "dens_pts_m2": 1877.91, "num_puntos": 47233 }, "geometry": { "type": "Point", "coordinates": [ -3.8368679, 37.8150695 ] } },
{ "type": "Feature", "properties": { "id": 13, "altura_m": 3.602, "diam_copa_m": 5.762, "area_copa_m2": 26.079, "volumen_copa_m3": 44.4, "prof_copa_m": 3.77, "esbeltez": 0.625, "dens_pts_m2": 1891.32, "num_puntos": 49324 }, "geometry": { "type": "Point", "coordinates": [ -3.8368289, 37.8149916 ] } },
{ "type": "Feature", "properties": { "id": 12, "altura_m": 3.776, "diam_copa_m": 6.317, "area_copa_m2": 31.34, "volumen_copa_m3": 53.275, "prof_copa_m": 3.86, "esbeltez": 0.598, "dens_pts_m2": 1889.47, "num_puntos": 59216 }, "geometry": { "type": "Point", "coordinates": [ -3.8369405, 37.8149737 ] } },
{ "type": "Feature", "properties": { "id": 7, "altura_m": 3.375, "diam_copa_m": 5.899, "area_copa_m2": 27.334, "volumen_copa_m3": 43.1788, "prof_copa_m": 3.44, "esbeltez": 0.572, "dens_pts_m2": 1913.86, "num_puntos": 52314 }, "geometry": { "type": "Point", "coordinates": [ -3.8369826, 37.815045 ] } },
{ "type": "Feature", "properties": { "id": 4, "altura_m": 3.308, "diam_copa_m": 5.667, "area_copa_m2": 25.224, "volumen_copa_m3": 33.7813, "prof_copa_m": 3.53, "esbeltez": 0.584, "dens_pts_m2": 1564.39, "num_puntos": 39460 }, "geometry": { "type": "Point", "coordinates": [ -3.8367476, 37.8151 ] } },
{ "type": "Feature", "properties": { "id": 2, "altura_m": 3.484, "diam_copa_m": 5.335, "area_copa_m2": 22.354, "volumen_copa_m3": 37.755, "prof_copa_m": 3.73, "esbeltez": 0.653, "dens_pts_m2": 1944.73, "num_puntos": 43472 }, "geometry": { "type": "Point", "coordinates": [ -3.8366539, 37.8151229 ] } },
{ "type": "Feature", "properties": { "id": 8, "altura_m": 3.434, "diam_copa_m": 5.338, "area_copa_m2": 22.382, "volumen_copa_m3": 34.665, "prof_copa_m": 3.72, "esbeltez": 0.643, "dens_pts_m2": 1654.61, "num_puntos": 37033 }, "geometry": { "type": "Point", "coordinates": [ -3.8367137, 37.8150183 ] } },
{ "type": "Feature", "properties": { "id": 18, "altura_m": 3.948, "diam_copa_m": 5.06, "area_copa_m2": 20.108, "volumen_copa_m3": 28.3606, "prof_copa_m": 4.14, "esbeltez": 0.78, "dens_pts_m2": 1876.97, "num_puntos": 37742 }, "geometry": { "type": "Point", "coordinates": [ -3.8365726, 37.8149655 ] } },
{ "type": "Feature", "properties": { "id": 14, "altura_m": 3.595, "diam_copa_m": 6.182, "area_copa_m2": 30.017, "volumen_copa_m3": 41.0032, "prof_copa_m": 3.85, "esbeltez": 0.582, "dens_pts_m2": 1626.62, "num_puntos": 48826 }, "geometry": { "type": "Point", "coordinates": [ -3.8365584, 37.8150089 ] } },
{ "type": "Feature", "properties": { "id": 23, "altura_m": 3.266, "diam_copa_m": 3.856, "area_copa_m2": 11.679, "volumen_copa_m3": 15.1869, "prof_copa_m": 3.38, "esbeltez": 0.847, "dens_pts_m2": 1513.37, "num_puntos": 17674 }, "geometry": { "type": "Point", "coordinates": [ -3.8365256, 37.8149172 ] } },
{ "type": "Feature", "properties": { "id": 5, "altura_m": 3.506, "diam_copa_m": 7.131, "area_copa_m2": 39.943, "volumen_copa_m3": 47.7819, "prof_copa_m": 3.76, "esbeltez": 0.492, "dens_pts_m2": 1459.03, "num_puntos": 58278 }, "geometry": { "type": "Point", "coordinates": [ -3.8365852, 37.8150933 ] } },
{ "type": "Feature", "properties": { "id": 9, "altura_m": 3.184, "diam_copa_m": 4.3, "area_copa_m2": 14.524, "volumen_copa_m3": 21.6506, "prof_copa_m": 3.42, "esbeltez": 0.74, "dens_pts_m2": 1761.29, "num_puntos": 25581 }, "geometry": { "type": "Point", "coordinates": [ -3.8366148, 37.8150324 ] } },
{ "type": "Feature", "properties": { "id": 1, "altura_m": 3.247, "diam_copa_m": 3.778, "area_copa_m2": 11.213, "volumen_copa_m3": 16.6387, "prof_copa_m": 3.49, "esbeltez": 0.859, "dens_pts_m2": 1719.57, "num_puntos": 19281 }, "geometry": { "type": "Point", "coordinates": [ -3.8366278, 37.8151762 ] } },
{ "type": "Feature", "properties": { "id": 58, "altura_m": 3.883, "diam_copa_m": 5.318, "area_copa_m2": 22.209, "volumen_copa_m3": 24.1975, "prof_copa_m": 3.51, "esbeltez": 0.73, "dens_pts_m2": 1861.01, "num_puntos": 41332 }, "geometry": { "type": "Point", "coordinates": [ -3.8363711, 37.8146019 ] } },
{ "type": "Feature", "properties": { "id": 64, "altura_m": 4.064, "diam_copa_m": 4.973, "area_copa_m2": 19.423, "volumen_copa_m3": 21.7387, "prof_copa_m": 3.69, "esbeltez": 0.817, "dens_pts_m2": 1314.99, "num_puntos": 25541 }, "geometry": { "type": "Point", "coordinates": [ -3.8364092, 37.814545 ] } },
{ "type": "Feature", "properties": { "id": 69, "altura_m": 3.945, "diam_copa_m": 5.729, "area_copa_m2": 25.776, "volumen_copa_m3": 30.13, "prof_copa_m": 3.52, "esbeltez": 0.689, "dens_pts_m2": 1575.96, "num_puntos": 40622 }, "geometry": { "type": "Point", "coordinates": [ -3.8363827, 37.8144794 ] } },
{ "type": "Feature", "properties": { "id": 53, "altura_m": 4.003, "diam_copa_m": 4.497, "area_copa_m2": 15.882, "volumen_copa_m3": 20.1068, "prof_copa_m": 3.8, "esbeltez": 0.89, "dens_pts_m2": 1599.3, "num_puntos": 25400 }, "geometry": { "type": "Point", "coordinates": [ -3.8364557, 37.8146298 ] } },
{ "type": "Feature", "properties": { "id": 74, "altura_m": 4.27, "diam_copa_m": 4.641, "area_copa_m2": 16.917, "volumen_copa_m3": 22.5387, "prof_copa_m": 4.03, "esbeltez": 0.92, "dens_pts_m2": 1588.68, "num_puntos": 26875 }, "geometry": { "type": "Point", "coordinates": [ -3.836481, 37.814449 ] } },
{ "type": "Feature", "properties": { "id": 73, "altura_m": 3.774, "diam_copa_m": 5.309, "area_copa_m2": 22.139, "volumen_copa_m3": 32.8212, "prof_copa_m": 3.56, "esbeltez": 0.711, "dens_pts_m2": 1854.91, "num_puntos": 41066 }, "geometry": { "type": "Point", "coordinates": [ -3.8365955, 37.814438 ] } },
{ "type": "Feature", "properties": { "id": 57, "altura_m": 4.226, "diam_copa_m": 5.752, "area_copa_m2": 25.981, "volumen_copa_m3": 39.3556, "prof_copa_m": 4.02, "esbeltez": 0.735, "dens_pts_m2": 1954.28, "num_puntos": 50775 }, "geometry": { "type": "Point", "coordinates": [ -3.8365485, 37.8146006 ] } },
{ "type": "Feature", "properties": { "id": 63, "altura_m": 3.721, "diam_copa_m": 5.069, "area_copa_m2": 20.18, "volumen_copa_m3": 28.2588, "prof_copa_m": 3.55, "esbeltez": 0.734, "dens_pts_m2": 1879.1, "num_puntos": 37920 }, "geometry": { "type": "Point", "coordinates": [ -3.8365159, 37.8145191 ] } },
{ "type": "Feature", "properties": { "id": 47, "altura_m": 3.589, "diam_copa_m": 6.716, "area_copa_m2": 35.43, "volumen_copa_m3": 49.4706, "prof_copa_m": 3.46, "esbeltez": 0.534, "dens_pts_m2": 1769.39, "num_puntos": 62690 }, "geometry": { "type": "Point", "coordinates": [ -3.836585, 37.8146833 ] } },
{ "type": "Feature", "properties": { "id": 43, "altura_m": 3.811, "diam_copa_m": 6.922, "area_copa_m2": 37.631, "volumen_copa_m3": 45.3719, "prof_copa_m": 3.64, "esbeltez": 0.551, "dens_pts_m2": 1472.2, "num_puntos": 55400 }, "geometry": { "type": "Point", "coordinates": [ -3.8364884, 37.8147088 ] } },
{ "type": "Feature", "properties": { "id": 33, "altura_m": 4.021, "diam_copa_m": 9.944, "area_copa_m2": 77.657, "volumen_copa_m3": 91.4194, "prof_copa_m": 4.03, "esbeltez": 0.404, "dens_pts_m2": 1371.89, "num_puntos": 106536 }, "geometry": { "type": "Point", "coordinates": [ -3.8365103, 37.8148208 ] } },
{ "type": "Feature", "properties": { "id": 38, "altura_m": 3.736, "diam_copa_m": 5.509, "area_copa_m2": 23.835, "volumen_copa_m3": 35.1594, "prof_copa_m": 3.66, "esbeltez": 0.678, "dens_pts_m2": 1804.43, "num_puntos": 43008 }, "geometry": { "type": "Point", "coordinates": [ -3.8364604, 37.8147611 ] } },
{ "type": "Feature", "properties": { "id": 28, "altura_m": 3.718, "diam_copa_m": 4.856, "area_copa_m2": 18.52, "volumen_copa_m3": 24.9669, "prof_copa_m": 3.82, "esbeltez": 0.766, "dens_pts_m2": 1781.59, "num_puntos": 32996 }, "geometry": { "type": "Point", "coordinates": [ -3.8365608, 37.8148726 ] } },
{ "type": "Feature", "properties": { "id": 48, "altura_m": 3.87, "diam_copa_m": 5.87, "area_copa_m2": 27.06, "volumen_copa_m3": 35.4588, "prof_copa_m": 3.62, "esbeltez": 0.659, "dens_pts_m2": 1467.49, "num_puntos": 39710 }, "geometry": { "type": "Point", "coordinates": [ -3.8364173, 37.8146809 ] } }
]
}
