{"type":"FeatureCollection","name":"footprint","features":[{"type":"Feature","properties":{},"geometry":{"type":"MultiPolygon","coordinates":[[[[-3.838606256320947,37.8192844914917],[-3.838764338081907,37.819085501491536],[-3.838886929592063,37.81913627088523],[-3.839064974385541,37.81912349378495],[-3.839246175851712,37.818913124649114],[-3.839300362912357,37.818918492984345],[-3.839281523175395,37.81886447642681],[-3.839431334801852,37.8188880496676],[-3.839728619130017,37.81869588636303],[-3.839689590322409,37.818649391296816],[-3.839775209958389,37.818671060912756],[-3.839987952737436,37.81856891490671],[-3.840061123496519,37.81842763048386],[-3.840115288514334,37.81843108045479],[-3.840103798443399,37.81772912006175],[-3.839932127830025,37.816662673245425],[-3.83973611411011,37.81436627547127],[-3.839612484017138,37.81438737112989],[-3.83952466597687,37.814318943681236],[-3.839508802260976,37.81423200225643],[-3.839283347662105,37.81404813856588],[-3.839233170032536,37.81390374954171],[-3.839102584545732,37.81386897277108],[-3.83899214485465,37.81374080076249],[-3.838825070354193,37.81366998627803],[-3.838675085441297,37.81367946462959],[-3.838688792248635,37.813559408879655],[-3.838608378220794,37.81348768191112],[-3.837685211325597,37.813494250789105],[-3.837528915660341,37.81355423466687],[-3.837440629952285,37.813510007169654],[-3.837318290365851,37.81364529496002],[-3.836770938411186,37.81372856648805],[-3.836690284818144,37.81380025852801],[-3.836712094618517,37.8138870105674],[-3.836431018888143,37.81376742561599],[-3.836168738287292,37.814159852697266],[-3.835889299321114,37.81418544406068],[-3.83591706150769,37.814288827156425],[-3.835660396449843,37.8142723521515],[-3.83571689227189,37.81486229892268],[-3.835676399562913,37.81496601876563],[-3.835376291434732,37.815039266664584],[-3.835323549082087,37.81517833771193],[-3.835232267132073,37.815132359222524],[-3.834879838941302,37.81525024184789],[-3.83482220912189,37.81521966481102],[-3.83484759858502,37.81526109396209],[-3.834614015081532,37.815329146799385],[-3.834479112217505,37.815472635907156],[-3.834499398799926,37.81550687133369],[-3.834265932132698,37.81550277070459],[-3.834272265300757,37.81556971354865],[-3.834082843631834,37.8155624971363],[-3.834102415520357,37.81640929549484],[-3.834168187650634,37.81640307526629],[-3.834261953013993,37.81650436821885],[-3.834345820248046,37.8167177216372],[-3.834410068246176,37.81670826596951],[-3.834593218521888,37.816918112381394],[-3.834664781306145,37.816897538496995],[-3.834659687139174,37.816973710376374],[-3.834845004000104,37.81694642824509],[-3.835151623022908,37.81715318533764],[-3.835259900513818,37.817122612467976],[-3.835366693458677,37.817323408349125],[-3.835474894670805,37.817187042510106],[-3.835626018318536,37.81719541366928],[-3.835641009516448,37.81727129553702],[-3.835744001591423,37.81733283088579],[-3.83597275143654,37.81726451501142],[-3.836025400684288,37.817183136409724],[-3.836038186344072,37.81722834349153],[-3.836252511360143,37.81713445577063],[-3.836462833731985,37.81714742224393],[-3.836685022472482,37.81705819949177],[-3.836749337046681,37.81710407330302],[-3.836717503006711,37.817266309277805],[-3.836743760286843,37.817384457798326],[-3.836796323861032,37.817394412874286],[-3.836763343380336,37.81743861705479],[-3.836810747322357,37.81758464981266],[-3.836860321420702,37.817576920106546],[-3.83692913916547,37.817692110282536],[-3.837115523955894,37.818121631530424],[-3.837271354232906,37.8180525034134],[-3.837319568082669,37.81843475758437],[-3.837391284882931,37.818427755540974],[-3.837402451516012,37.81852712478368],[-3.837444460799912,37.81852476040895],[-3.837405512025365,37.818567531696644],[-3.837538509671444,37.81871634920202],[-3.837568433140497,37.81889540953595],[-3.837851450963568,37.81903681513718],[-3.837843658624429,37.81908792282601],[-3.838304424369072,37.8190421499637],[-3.838450399300448,37.81928560106817],[-3.838606256320947,37.8192844914917]],[[-3.836462930987333,37.81712307581296],[-3.836431162140677,37.81709334877753],[-3.836474605224892,37.81708625297198],[-3.836462930987333,37.81712307581296]]]]}}]}